[
	{
		"label":"Australia",
		"phone_code":"+61"
	},
	{
		"label":"Austria",
		"phone_code":"+43"
	},
	{
		"label":"Belgium",
		"phone_code":"+32"
	},
	{
		"label":"Bulgaria",
		"phone_code":"+359"
	},
	{
		"label":"Canada",
		"phone_code":"+1"
	},
	{
		"label":"China",
		"phone_code":"+86"
	},
	{
		"label":"Croatia",
		"phone_code":"+385"
	},
	{
		"label":"Cyprus",
		"phone_code":"+357"
	},
	{
		"label":"Czech",
		"phone_code":"+420"
	},
	{
		"label":"Denmark",
		"phone_code":"+45"
	},
	{
		"label":"Estonia",
		"phone_code":"+372"
	},
	{
		"label":"Finland",
		"phone_code":"+358"
	},
	{
		"label":"France",
		"phone_code":"+33"
	},
	{
		"label":"Germany",
		"phone_code":"+49"
	},
	{
		"label":"Greece",
		"phone_code":"+30"
	},
	{
		"label":"Hong Kong",
		"phone_code":"+852"
	},
	{
		"label":"Hungary",
		"phone_code":"+36"
	},
	{
		"label":"Ireland",
		"phone_code":"+353"
	},
	{
		"label":"Italy",
		"phone_code":"+39"
	},
	{
		"label":"Japan",
		"phone_code":"+81"
	},
	{
		"label":"Latvia",
		"phone_code":"+371"
	},
	{
		"label":"Lithuania",
		"phone_code":"+370"
	},
	{
		"label":"Luxembourg",
		"phone_code":"+352"
	},
	{
		"label":"Macao",
		"phone_code":"+853"
	},
	{
		"label":"Malta",
		"phone_code":"+356"
	},
	{
		"label":"Netherlands",
		"phone_code":"+31"
	},
	{
		"label":"Poland",
		"phone_code":"+48"
	},
	{
		"label":"Portugal",
		"phone_code":"+351"
	},
	{
		"label":"Romania",
		"phone_code":"+40"
	},
	{
		"label":"Russia",
		"phone_code":"+7"
	},
	{
		"label":"Singapore",
		"phone_code":"+65"
	},
	{
		"label":"Slovakia",
		"phone_code":"+421"
	},
	{
		"label":"Slovenia",
		"phone_code":"+386"
	},
	{
		"label":"South Korea",
		"phone_code":"+82"
	},
	{
		"label":"Spain",
		"phone_code":"+34"
	},
	{
		"label":"Sweden",
		"phone_code":"+46"
	},
	{
		"label":"Taiwan",
		"phone_code":"+886"
	},
	{
		"label":"United Arab Emirates",
		"phone_code":"+971"
	},
	{
		"label":"United Kingdom",
		"phone_code":"+44"
	},
	{
		"label":"United States",
		"phone_code":"+1"
	}
]